start=new Date('2022-05-19T00:00:00.000Z').valueOf();
sats=[{"MEAN_ELEMENT_THEORY":"SGP4","FILE":"3452356","CENTER_NAME":"EARTH","NORAD_CAT_ID":"47999","RCS_SIZE":"LARGE","TIME_SYSTEM":"UTC","REV_AT_EPOCH":"130","OBJECT_TYPE":"PAYLOAD","SITE":"AFETR","ELEMENT_SET_NO":"999","MEAN_MOTION":"15.06409997","LAUNCH_DATE":"2021-03-24","APOAPSIS":"548.222","SEMIMAJOR_AXIS":"6925.318","REF_FRAME":"TEME","PERIAPSIS":"546.143","MEAN_MOTION_DOT":"-0.00058121","GP_ID":"203904668","BSTAR":"-0.00391390000000","INCLINATION":"53.0530","OBJECT_ID":"2021-024Y","CLASSIFICATION_TYPE":"U","MEAN_ANOMALY":"341.8409","TLE_LINE1":"1 47999U 21024Y   22138.91667824 -.00058121  00000-0 -39139-2 0  9992","PERIOD":"95.592","COUNTRY_CODE":"US","EPHEMERIS_TYPE":"0","ARG_OF_PERICENTER":"66.0899","RA_OF_ASC_NODE":"20.0574","EPOCH":"2022-05-18T22:00:00.999936","ECCENTRICITY":"0.00015010","OBJECT_NAME":"STARLINK-2218","DECAY_DATE":null,"MEAN_MOTION_DDOT":"0.0000000000000","TLE_LINE2":"2 47999  53.0530  20.0574 0001501  66.0899 341.8409 15.06409997  1302"},{"BSTAR":"-0.00389430000000","OBJECT_ID":"2021-024Z","CLASSIFICATION_TYPE":"U","INCLINATION":"53.0559","PERIOD":"95.746","TLE_LINE1":"1 48000U 21024Z   22139.25001157 -.00054213  00000-0 -38943-2 0  9995","COUNTRY_CODE":"US","MEAN_ANOMALY":"73.1596","EPHEMERIS_TYPE":"0","RA_OF_ASC_NODE":"3.6565","ARG_OF_PERICENTER":"48.4758","ECCENTRICITY":"0.00018510","EPOCH":"2022-05-19T06:00:00.999648","OBJECT_NAME":"STARLINK-2270","DECAY_DATE":null,"TLE_LINE2":"2 48000  53.0559   3.6565 0001851  48.4758  73.1596 15.03976455 65790","MEAN_MOTION_DDOT":"0.0000000000000","FILE":"3452706","MEAN_ELEMENT_THEORY":"SGP4","CENTER_NAME":"EARTH","RCS_SIZE":"LARGE","TIME_SYSTEM":"UTC","NORAD_CAT_ID":"48000","REV_AT_EPOCH":"6579","SITE":"AFETR","OBJECT_TYPE":"PAYLOAD","MEAN_MOTION":"15.03976455","ELEMENT_SET_NO":"999","SEMIMAJOR_AXIS":"6932.786","REF_FRAME":"TEME","APOAPSIS":"555.935","LAUNCH_DATE":"2021-03-24","MEAN_MOTION_DOT":"-0.00054213","PERIAPSIS":"553.368","GP_ID":"203916160"},{"BSTAR":"0.00083529000000","CLASSIFICATION_TYPE":"U","OBJECT_ID":"2021-024AB","INCLINATION":"53.0560","COUNTRY_CODE":"US","TLE_LINE1":"1 48002U 21024AB  22139.25001157  .00012174  00000-0  83529-3 0  9996","PERIOD":"95.594","MEAN_ANOMALY":"26.6708","EPHEMERIS_TYPE":"0","RA_OF_ASC_NODE":"23.5456","ARG_OF_PERICENTER":"62.4189","ECCENTRICITY":"0.00014710","EPOCH":"2022-05-19T06:00:00.999648","DECAY_DATE":null,"OBJECT_NAME":"STARLINK-2265","TLE_LINE2":"2 48002  53.0560  23.5456 0001471  62.4189  26.6708 15.06376003 65510","MEAN_MOTION_DDOT":"0.0000000000000","FILE":"3452706","MEAN_ELEMENT_THEORY":"SGP4","CENTER_NAME":"EARTH","TIME_SYSTEM":"UTC","RCS_SIZE":"LARGE","NORAD_CAT_ID":"48002","REV_AT_EPOCH":"6551","SITE":"AFETR","OBJECT_TYPE":"PAYLOAD","MEAN_MOTION":"15.06376003","ELEMENT_SET_NO":"999","REF_FRAME":"TEME","SEMIMAJOR_AXIS":"6925.422","LAUNCH_DATE":"2021-03-24","APOAPSIS":"548.306","GP_ID":"203916659","MEAN_MOTION_DOT":"0.00012174","PERIAPSIS":"546.268"},{"MEAN_ELEMENT_THEORY":"SGP4","FILE":"3452706","CENTER_NAME":"EARTH","NORAD_CAT_ID":"48003","RCS_SIZE":"LARGE","TIME_SYSTEM":"UTC","REV_AT_EPOCH":"6444","OBJECT_TYPE":"PAYLOAD","SITE":"AFETR","ELEMENT_SET_NO":"999","MEAN_MOTION":"15.06399887","LAUNCH_DATE":"2021-03-24","APOAPSIS":"548.624","SEMIMAJOR_AXIS":"6925.349","REF_FRAME":"TEME","MEAN_MOTION_DOT":"0.00001366","PERIAPSIS":"545.804","GP_ID":"203916159","BSTAR":"0.00011060000000","INCLINATION":"53.0575","OBJECT_ID":"2021-024AC","CLASSIFICATION_TYPE":"U","MEAN_ANOMALY":"311.9890","TLE_LINE1":"1 48003U 21024AC  22139.18526166  .00001366  00000-0  11060-3 0  9993","PERIOD":"95.592","COUNTRY_CODE":"US","EPHEMERIS_TYPE":"0","ARG_OF_PERICENTER":"48.1272","RA_OF_ASC_NODE":"98.8426","EPOCH":"2022-05-19T04:26:46.607424","ECCENTRICITY":"0.00020360","OBJECT_NAME":"STARLINK-2263","DECAY_DATE":null,"MEAN_MOTION_DDOT":"0.0000000000000","TLE_LINE2":"2 48003  53.0575  98.8426 0002036  48.1272 311.9890 15.06399887 64449"},{"SITE":"AFETR","OBJECT_TYPE":"PAYLOAD","MEAN_MOTION":"15.06392239","ELEMENT_SET_NO":"999","SEMIMAJOR_AXIS":"6925.372","REF_FRAME":"TEME","LAUNCH_DATE":"2021-03-24","APOAPSIS":"548.649","MEAN_MOTION_DOT":"0.00000536","PERIAPSIS":"545.825","GP_ID":"203880320","FILE":"3452269","MEAN_ELEMENT_THEORY":"SGP4","CENTER_NAME":"EARTH","RCS_SIZE":"LARGE","TIME_SYSTEM":"UTC","NORAD_CAT_ID":"48005","REV_AT_EPOCH":"6473","RA_OF_ASC_NODE":"73.1063","ARG_OF_PERICENTER":"57.7654","ECCENTRICITY":"0.00020390","EPOCH":"2022-05-18T05:36:03.118752","OBJECT_NAME":"STARLINK-2254","DECAY_DATE":null,"MEAN_MOTION_DDOT":"0.0000000000000","TLE_LINE2":"2 48005  53.0562  73.1063 0002039  57.7654 302.3532 15.06392239 64736","BSTAR":"0.00005493500000","OBJECT_ID":"2021-024AE","CLASSIFICATION_TYPE":"U","INCLINATION":"53.0562","PERIOD":"95.593","TLE_LINE1":"1 48005U 21024AE  22138.23336943  .00000536  00000-0  54935-4 0  9999","COUNTRY_CODE":"US","MEAN_ANOMALY":"302.3532","EPHEMERIS_TYPE":"0"},{"OBJECT_NAME":"STARLINK-2271","DECAY_DATE":null,"TLE_LINE2":"2 48008  53.0556   3.5377 0001409  71.9148 287.1331 15.06410867 65795","MEAN_MOTION_DDOT":"0.0000000000000","ARG_OF_PERICENTER":"71.9148","RA_OF_ASC_NODE":"3.5377","EPOCH":"2022-05-19T06:00:00.999648","ECCENTRICITY":"0.00014090","MEAN_ANOMALY":"287.1331","PERIOD":"95.591","TLE_LINE1":"1 48008U 21024AH  22139.25001157 -.00057190  00000-0 -38503-2 0  9992","COUNTRY_CODE":"US","EPHEMERIS_TYPE":"0","BSTAR":"-0.00385030000000","INCLINATION":"53.0556","OBJECT_ID":"2021-024AH","CLASSIFICATION_TYPE":"U","APOAPSIS":"548.156","LAUNCH_DATE":"2021-03-24","SEMIMAJOR_AXIS":"6925.315","REF_FRAME":"TEME","MEAN_MOTION_DOT":"-0.00057190","PERIAPSIS":"546.204","GP_ID":"203916241","OBJECT_TYPE":"PAYLOAD","SITE":"AFETR","ELEMENT_SET_NO":"999","MEAN_MOTION":"15.06410867","NORAD_CAT_ID":"48008","RCS_SIZE":"LARGE","TIME_SYSTEM":"UTC","REV_AT_EPOCH":"6579","MEAN_ELEMENT_THEORY":"SGP4","FILE":"3452693","CENTER_NAME":"EARTH"},{"OBJECT_NAME":"STARLINK-2153","DECAY_DATE":null,"MEAN_MOTION_DDOT":"0.0000000000000","TLE_LINE2":"2 48009  53.0582  80.3533 0001782  50.3582 309.7564 15.06402456 64680","ARG_OF_PERICENTER":"50.3582","RA_OF_ASC_NODE":"80.3533","EPOCH":"2022-05-18T20:15:47.890656","ECCENTRICITY":"0.00017820","MEAN_ANOMALY":"309.7564","TLE_LINE1":"1 48009U 21024AJ  22138.84430429  .00001801  00000-0  13980-3 0  9994","PERIOD":"95.592","COUNTRY_CODE":"US","EPHEMERIS_TYPE":"0","BSTAR":"0.00013980000000","INCLINATION":"53.0582","OBJECT_ID":"2021-024AJ","CLASSIFICATION_TYPE":"U","APOAPSIS":"548.440","LAUNCH_DATE":"2021-03-24","SEMIMAJOR_AXIS":"6925.341","REF_FRAME":"TEME","PERIAPSIS":"545.972","MEAN_MOTION_DOT":"0.00001801","GP_ID":"203879819","OBJECT_TYPE":"PAYLOAD","SITE":"AFETR","ELEMENT_SET_NO":"999","MEAN_MOTION":"15.06402456","NORAD_CAT_ID":"48009","RCS_SIZE":"LARGE","TIME_SYSTEM":"UTC","REV_AT_EPOCH":"6468","MEAN_ELEMENT_THEORY":"SGP4","FILE":"3452269","CENTER_NAME":"EARTH"},{"BSTAR":"0.00007937900000","OBJECT_ID":"2021-024AK","CLASSIFICATION_TYPE":"U","INCLINATION":"53.0546","PERIOD":"95.592","TLE_LINE1":"1 48010U 21024AK  22138.85721443  .00000901  00000-0  79379-4 0  9991","COUNTRY_CODE":"US","MEAN_ANOMALY":"300.5344","EPHEMERIS_TYPE":"0","RA_OF_ASC_NODE":"100.2992","ARG_OF_PERICENTER":"59.5809","ECCENTRICITY":"0.00016630","EPOCH":"2022-05-18T20:34:23.326752","OBJECT_NAME":"STARLINK-2226","DECAY_DATE":null,"MEAN_MOTION_DDOT":"0.0000000000000","TLE_LINE2":"2 48010  53.0546 100.2992 0001663  59.5809 300.5344 15.06396639 64392","FILE":"3452269","MEAN_ELEMENT_THEORY":"SGP4","CENTER_NAME":"EARTH","RCS_SIZE":"LARGE","TIME_SYSTEM":"UTC","NORAD_CAT_ID":"48010","REV_AT_EPOCH":"6439","SITE":"AFETR","OBJECT_TYPE":"PAYLOAD","MEAN_MOTION":"15.06396639","ELEMENT_SET_NO":"999","SEMIMAJOR_AXIS":"6925.359","REF_FRAME":"TEME","LAUNCH_DATE":"2021-03-24","APOAPSIS":"548.376","MEAN_MOTION_DOT":"0.00000901","PERIAPSIS":"546.072","GP_ID":"203879815"},{"FILE":"3451871","MEAN_ELEMENT_THEORY":"SGP4","CENTER_NAME":"EARTH","RCS_SIZE":"LARGE","TIME_SYSTEM":"UTC","NORAD_CAT_ID":"48011","REV_AT_EPOCH":"6511","SITE":"AFETR","OBJECT_TYPE":"PAYLOAD","MEAN_MOTION":"15.06395678","ELEMENT_SET_NO":"999","SEMIMAJOR_AXIS":"6925.362","REF_FRAME":"TEME","APOAPSIS":"548.736","LAUNCH_DATE":"2021-03-24","PERIAPSIS":"545.718","MEAN_MOTION_DOT":"-0.00001766","GP_ID":"203872747","BSTAR":"-0.00009968400000","OBJECT_ID":"2021-024AL","CLASSIFICATION_TYPE":"U","INCLINATION":"53.0558","PERIOD":"95.592","TLE_LINE1":"1 48011U 21024AL  22138.21676085 -.00001766  00000-0 -99684-4 0  9996","COUNTRY_CODE":"US","MEAN_ANOMALY":"310.1798","EPHEMERIS_TYPE":"0","RA_OF_ASC_NODE":"83.1911","ARG_OF_PERICENTER":"49.9382","ECCENTRICITY":"0.00021790","EPOCH":"2022-05-18T05:12:08.137440","OBJECT_NAME":"STARLINK-2272","DECAY_DATE":null,"MEAN_MOTION_DDOT":"0.0000000000000","TLE_LINE2":"2 48011  53.0558  83.1911 0002179  49.9382 310.1798 15.06395678 65111"},{"EPOCH":"2022-05-19T03:18:17.760384","ECCENTRICITY":"0.00046910","ARG_OF_PERICENTER":"31.5601","RA_OF_ASC_NODE":"32.8425","TLE_LINE2":"2 48012  53.0562  32.8425 0004691  31.5601 328.5685 15.43370608 65373","MEAN_MOTION_DDOT":"0.0000000000000","OBJECT_NAME":"STARLINK-2216","DECAY_DATE":null,"INCLINATION":"53.0562","OBJECT_ID":"2021-024AM","CLASSIFICATION_TYPE":"U","BSTAR":"0.00058183000000","EPHEMERIS_TYPE":"0","MEAN_ANOMALY":"328.5685","TLE_LINE1":"1 48012U 21024AM  22139.13770556  .00026050  00000-0  58183-3 0  9996","PERIOD":"93.302","COUNTRY_CODE":"US","ELEMENT_SET_NO":"999","MEAN_MOTION":"15.43370608","OBJECT_TYPE":"PAYLOAD","SITE":"AFETR","PERIAPSIS":"432.975","MEAN_MOTION_DOT":"0.00026050","GP_ID":"203916751","LAUNCH_DATE":"2021-03-24","APOAPSIS":"439.369","SEMIMAJOR_AXIS":"6814.307","REF_FRAME":"TEME","CENTER_NAME":"EARTH","MEAN_ELEMENT_THEORY":"SGP4","FILE":"3452694","REV_AT_EPOCH":"6537","NORAD_CAT_ID":"48012","RCS_SIZE":"LARGE","TIME_SYSTEM":"UTC"}];
